
export const ommWorldview3 = {
    "OBJECT_NAME": "WORLDVIEW-3 (WV-3)",
    "OBJECT_ID": "2014-048A",
    "EPOCH": "2026-07-17T06:51:41.090400",
    "MEAN_MOTION": 14.85065993,
    "ECCENTRICITY": 0.00014581,
    "INCLINATION": 97.8555,
    "RA_OF_ASC_NODE": 272.702,
    "ARG_OF_PERICENTER": 152.7669,
    "MEAN_ANOMALY": 207.3622,
    "EPHEMERIS_TYPE": 0,
    "CLASSIFICATION_TYPE": "U",
    "NORAD_CAT_ID": 40115,
    "ELEMENT_SET_NO": 999,
    "REV_AT_EPOCH": 64637,
    "BSTAR": 0.000045742722,
    "MEAN_MOTION_DOT": 0.00000337,
    "MEAN_MOTION_DDOT": 0
};
